[{"OBJECT_NAME":"ONEWEB-0314","OBJECT_ID":"2021-075AB","EPOCH":"2026-03-09T21:49:53.911200","MEAN_MOTION":13.17648657,"ECCENTRICITY":0.00020663,"INCLINATION":87.9162,"RA_OF_ASC_NODE":25.5573,"ARG_OF_PERICENTER":69.4415,"MEAN_ANOMALY":290.6938,"EPHEMERIS_TYPE":0,"CLASSIFICATION_TYPE":"U","NORAD_CAT_ID":49100,"ELEMENT_SET_NO":999,"REV_AT_EPOCH":22049,"BSTAR":2.897504e-5,"MEAN_MOTION_DOT":2.4e-7,"MEAN_MOTION_DDOT":0},{"OBJECT_NAME":"DELTA 1 DEB","OBJECT_ID":"1975-052EB","EPOCH":"2026-03-09T08:55:35.755968","MEAN_MOTION":13.31695006,"ECCENTRICITY":0.0068239,"INCLINATION":99.8121,"RA_OF_ASC_NODE":203.4255,"ARG_OF_PERICENTER":191.947,"MEAN_ANOMALY":233.1789,"EPHEMERIS_TYPE":0,"CLASSIFICATION_TYPE":"U","NORAD_CAT_ID":21443,"ELEMENT_SET_NO":999,"REV_AT_EPOCH":69335,"BSTAR":0.00014298549,"MEAN_MOTION_DOT":2.7e-7,"MEAN_MOTION_DDOT":0}]
